STARLINK-35567          
1 66472U 25262S   25336.50006943 -.02108263  00000+0 -24592-1 0  9994
2 66472  42.9991 131.1156 0001617 269.7206  49.1327 15.64297257  3991
STARLINK-35568          
1 66473U 25262T   25336.50006943 -.02088877  00000+0 -24340-1 0  9994
2 66473  42.9992 131.1104 0001742 266.5287  54.2371 15.64288126  3990
STARLINK-35620          
1 66474U 25262U   25336.50006943 -.02103055  00000+0 -24523-1 0  9994
2 66474  42.9995 131.1057 0001554 267.0031  55.6796 15.64297121  3996
STARLINK-35538          
1 66475U 25262V   25336.50006943 -.02109284  00000+0 -24603-1 0  9994
2 66475  42.9989 131.1012 0001633 266.1492  58.4527 15.64299796  3993
STARLINK-35372          
1 66476U 25262W   25336.50006943 -.02092443  00000+0 -24387-1 0  9992
2 66476  42.9991 131.0960 0001680 268.6198  57.8995 15.64288888  3880
STARLINK-35354          
1 66477U 25262X   25336.50006943 -.02107270  00000+0 -24580-1 0  9993
2 66477  42.9992 131.0858 0001599 268.8808  61.4767 15.64295779  3994
STARLINK-35283          
1 66478U 25262Y   25336.50006943 -.02097492  00000+0 -24451-1 0  9995
2 66478  42.9993 131.0805 0001726 265.9320  66.3375 15.64292612  3999
STARLINK-35581          
1 66479U 25262Z   25336.50006943 -.02106638  00000+0 -24568-1 0  9998
2 66479  42.9991 131.0902 0001649 269.0691  59.3654 15.64298486  3993
STARLINK-35670          
1 66480U 25262AA  25336.50006943 -.02090916  00000+0 -24365-1 0  9996
2 66480  42.9994 131.0755 0001802 266.9607  67.2243 15.64289166  3995
STARLINK-35698          
1 66481U 25262AB  25336.50006943 -.02105889  00000+0 -24561-1 0  9991
2 66481  42.9990 131.0702 0001660 270.5284  65.5784 15.64295626  3997
STARLINK-35648          
1 66482U 25262AC  25336.50006943 -.02119940  00000+0 -24740-1 0  9994
2 66482  42.9992 131.0656 0001659 270.5652  67.4554 15.64305867  3833
STARLINK-35654          
1 66483U 25262AD  25336.50006943 -.02112419  00000+0 -24644-1 0  9992
2 66483  42.9995 131.0601 0001611 270.6987  69.2405 15.64300776  3993
