CCSDS_OMM_VERS = 2.0
CREATION_DATE  = 
ORIGINATOR     = 

OBJECT_NAME    = STARLINK-35567
OBJECT_ID      = 2025-262S
CENTER_NAME    = EARTH
REF_FRAME      = TEME
TIME_SYSTEM    = UTC
MEAN_ELEMENT_THEORY = SGP/SGP4

EPOCH          = 2025-12-02T12:00:05.998752
MEAN_MOTION    = 15.64297257
ECCENTRICITY   = .0001617
INCLINATION    = 42.9991
RA_OF_ASC_NODE = 131.1156
ARG_OF_PERICENTER = 269.7206
MEAN_ANOMALY   = 49.1327

EPHEMERIS_TYPE = 0
CLASSIFICATION_TYPE = U
NORAD_CAT_ID   = 66472
ELEMENT_SET_NO = 999
REV_AT_EPOCH   = 399
BSTAR          = -.24592E-1
MEAN_MOTION_DOT = -.2108263E-1
MEAN_MOTION_DDOT = 0

CCSDS_OMM_VERS = 2.0
CREATION_DATE  = 
ORIGINATOR     = 

OBJECT_NAME    = STARLINK-35568
OBJECT_ID      = 2025-262T
CENTER_NAME    = EARTH
REF_FRAME      = TEME
TIME_SYSTEM    = UTC
MEAN_ELEMENT_THEORY = SGP/SGP4

EPOCH          = 2025-12-02T12:00:05.998752
MEAN_MOTION    = 15.64288126
ECCENTRICITY   = .0001742
INCLINATION    = 42.9992
RA_OF_ASC_NODE = 131.1104
ARG_OF_PERICENTER = 266.5287
MEAN_ANOMALY   = 54.2371

EPHEMERIS_TYPE = 0
CLASSIFICATION_TYPE = U
NORAD_CAT_ID   = 66473
ELEMENT_SET_NO = 999
REV_AT_EPOCH   = 399
BSTAR          = -.2434E-1
MEAN_MOTION_DOT = -.2088877E-1
MEAN_MOTION_DDOT = 0

CCSDS_OMM_VERS = 2.0
CREATION_DATE  = 
ORIGINATOR     = 

OBJECT_NAME    = STARLINK-35620
OBJECT_ID      = 2025-262U
CENTER_NAME    = EARTH
REF_FRAME      = TEME
TIME_SYSTEM    = UTC
MEAN_ELEMENT_THEORY = SGP/SGP4

EPOCH          = 2025-12-02T12:00:05.998752
MEAN_MOTION    = 15.64297121
ECCENTRICITY   = .0001554
INCLINATION    = 42.9995
RA_OF_ASC_NODE = 131.1057
ARG_OF_PERICENTER = 267.0031
MEAN_ANOMALY   = 55.6796

EPHEMERIS_TYPE = 0
CLASSIFICATION_TYPE = U
NORAD_CAT_ID   = 66474
ELEMENT_SET_NO = 999
REV_AT_EPOCH   = 399
BSTAR          = -.24523E-1
MEAN_MOTION_DOT = -.2103055E-1
MEAN_MOTION_DDOT = 0

CCSDS_OMM_VERS = 2.0
CREATION_DATE  = 
ORIGINATOR     = 

OBJECT_NAME    = STARLINK-35538
OBJECT_ID      = 2025-262V
CENTER_NAME    = EARTH
REF_FRAME      = TEME
TIME_SYSTEM    = UTC
MEAN_ELEMENT_THEORY = SGP/SGP4

EPOCH          = 2025-12-02T12:00:05.998752
MEAN_MOTION    = 15.64299796
ECCENTRICITY   = .0001633
INCLINATION    = 42.9989
RA_OF_ASC_NODE = 131.1012
ARG_OF_PERICENTER = 266.1492
MEAN_ANOMALY   = 58.4527

EPHEMERIS_TYPE = 0
CLASSIFICATION_TYPE = U
NORAD_CAT_ID   = 66475
ELEMENT_SET_NO = 999
REV_AT_EPOCH   = 399
BSTAR          = -.24603E-1
MEAN_MOTION_DOT = -.2109284E-1
MEAN_MOTION_DDOT = 0

CCSDS_OMM_VERS = 2.0
CREATION_DATE  = 
ORIGINATOR     = 

OBJECT_NAME    = STARLINK-35372
OBJECT_ID      = 2025-262W
CENTER_NAME    = EARTH
REF_FRAME      = TEME
TIME_SYSTEM    = UTC
MEAN_ELEMENT_THEORY = SGP/SGP4

EPOCH          = 2025-12-02T12:00:05.998752
MEAN_MOTION    = 15.64288888
ECCENTRICITY   = .000168
INCLINATION    = 42.9991
RA_OF_ASC_NODE = 131.0960
ARG_OF_PERICENTER = 268.6198
MEAN_ANOMALY   = 57.8995

EPHEMERIS_TYPE = 0
CLASSIFICATION_TYPE = U
NORAD_CAT_ID   = 66476
ELEMENT_SET_NO = 999
REV_AT_EPOCH   = 388
BSTAR          = -.24387E-1
MEAN_MOTION_DOT = -.2092443E-1
MEAN_MOTION_DDOT = 0

CCSDS_OMM_VERS = 2.0
CREATION_DATE  = 
ORIGINATOR     = 

OBJECT_NAME    = STARLINK-35354
OBJECT_ID      = 2025-262X
CENTER_NAME    = EARTH
REF_FRAME      = TEME
TIME_SYSTEM    = UTC
MEAN_ELEMENT_THEORY = SGP/SGP4

EPOCH          = 2025-12-02T12:00:05.998752
MEAN_MOTION    = 15.64295779
ECCENTRICITY   = .0001599
INCLINATION    = 42.9992
RA_OF_ASC_NODE = 131.0858
ARG_OF_PERICENTER = 268.8808
MEAN_ANOMALY   = 61.4767

EPHEMERIS_TYPE = 0
CLASSIFICATION_TYPE = U
NORAD_CAT_ID   = 66477
ELEMENT_SET_NO = 999
REV_AT_EPOCH   = 399
BSTAR          = -.2458E-1
MEAN_MOTION_DOT = -.210727E-1
MEAN_MOTION_DDOT = 0

CCSDS_OMM_VERS = 2.0
CREATION_DATE  = 
ORIGINATOR     = 

OBJECT_NAME    = STARLINK-35283
OBJECT_ID      = 2025-262Y
CENTER_NAME    = EARTH
REF_FRAME      = TEME
TIME_SYSTEM    = UTC
MEAN_ELEMENT_THEORY = SGP/SGP4

EPOCH          = 2025-12-02T12:00:05.998752
MEAN_MOTION    = 15.64292612
ECCENTRICITY   = .0001726
INCLINATION    = 42.9993
RA_OF_ASC_NODE = 131.0805
ARG_OF_PERICENTER = 265.9320
MEAN_ANOMALY   = 66.3375

EPHEMERIS_TYPE = 0
CLASSIFICATION_TYPE = U
NORAD_CAT_ID   = 66478
ELEMENT_SET_NO = 999
REV_AT_EPOCH   = 399
BSTAR          = -.24451E-1
MEAN_MOTION_DOT = -.2097492E-1
MEAN_MOTION_DDOT = 0

CCSDS_OMM_VERS = 2.0
CREATION_DATE  = 
ORIGINATOR     = 

OBJECT_NAME    = STARLINK-35581
OBJECT_ID      = 2025-262Z
CENTER_NAME    = EARTH
REF_FRAME      = TEME
TIME_SYSTEM    = UTC
MEAN_ELEMENT_THEORY = SGP/SGP4

EPOCH          = 2025-12-02T12:00:05.998752
MEAN_MOTION    = 15.64298486
ECCENTRICITY   = .0001649
INCLINATION    = 42.9991
RA_OF_ASC_NODE = 131.0902
ARG_OF_PERICENTER = 269.0691
MEAN_ANOMALY   = 59.3654

EPHEMERIS_TYPE = 0
CLASSIFICATION_TYPE = U
NORAD_CAT_ID   = 66479
ELEMENT_SET_NO = 999
REV_AT_EPOCH   = 399
BSTAR          = -.24568E-1
MEAN_MOTION_DOT = -.2106638E-1
MEAN_MOTION_DDOT = 0

CCSDS_OMM_VERS = 2.0
CREATION_DATE  = 
ORIGINATOR     = 

OBJECT_NAME    = STARLINK-35670
OBJECT_ID      = 2025-262AA
CENTER_NAME    = EARTH
REF_FRAME      = TEME
TIME_SYSTEM    = UTC
MEAN_ELEMENT_THEORY = SGP/SGP4

EPOCH          = 2025-12-02T12:00:05.998752
MEAN_MOTION    = 15.64289166
ECCENTRICITY   = .0001802
INCLINATION    = 42.9994
RA_OF_ASC_NODE = 131.0755
ARG_OF_PERICENTER = 266.9607
MEAN_ANOMALY   = 67.2243

EPHEMERIS_TYPE = 0
CLASSIFICATION_TYPE = U
NORAD_CAT_ID   = 66480
ELEMENT_SET_NO = 999
REV_AT_EPOCH   = 399
BSTAR          = -.24365E-1
MEAN_MOTION_DOT = -.2090916E-1
MEAN_MOTION_DDOT = 0

CCSDS_OMM_VERS = 2.0
CREATION_DATE  = 
ORIGINATOR     = 

OBJECT_NAME    = STARLINK-35698
OBJECT_ID      = 2025-262AB
CENTER_NAME    = EARTH
REF_FRAME      = TEME
TIME_SYSTEM    = UTC
MEAN_ELEMENT_THEORY = SGP/SGP4

EPOCH          = 2025-12-02T12:00:05.998752
MEAN_MOTION    = 15.64295626
ECCENTRICITY   = .000166
INCLINATION    = 42.9990
RA_OF_ASC_NODE = 131.0702
ARG_OF_PERICENTER = 270.5284
MEAN_ANOMALY   = 65.5784

EPHEMERIS_TYPE = 0
CLASSIFICATION_TYPE = U
NORAD_CAT_ID   = 66481
ELEMENT_SET_NO = 999
REV_AT_EPOCH   = 399
BSTAR          = -.24561E-1
MEAN_MOTION_DOT = -.2105889E-1
MEAN_MOTION_DDOT = 0

CCSDS_OMM_VERS = 2.0
CREATION_DATE  = 
ORIGINATOR     = 

OBJECT_NAME    = STARLINK-35648
OBJECT_ID      = 2025-262AC
CENTER_NAME    = EARTH
REF_FRAME      = TEME
TIME_SYSTEM    = UTC
MEAN_ELEMENT_THEORY = SGP/SGP4

EPOCH          = 2025-12-02T12:00:05.998752
MEAN_MOTION    = 15.64305867
ECCENTRICITY   = .0001659
INCLINATION    = 42.9992
RA_OF_ASC_NODE = 131.0656
ARG_OF_PERICENTER = 270.5652
MEAN_ANOMALY   = 67.4554

EPHEMERIS_TYPE = 0
CLASSIFICATION_TYPE = U
NORAD_CAT_ID   = 66482
ELEMENT_SET_NO = 999
REV_AT_EPOCH   = 383
BSTAR          = -.2474E-1
MEAN_MOTION_DOT = -.211994E-1
MEAN_MOTION_DDOT = 0

CCSDS_OMM_VERS = 2.0
CREATION_DATE  = 
ORIGINATOR     = 

OBJECT_NAME    = STARLINK-35654
OBJECT_ID      = 2025-262AD
CENTER_NAME    = EARTH
REF_FRAME      = TEME
TIME_SYSTEM    = UTC
MEAN_ELEMENT_THEORY = SGP/SGP4

EPOCH          = 2025-12-02T12:00:05.998752
MEAN_MOTION    = 15.64300776
ECCENTRICITY   = .0001611
INCLINATION    = 42.9995
RA_OF_ASC_NODE = 131.0601
ARG_OF_PERICENTER = 270.6987
MEAN_ANOMALY   = 69.2405

EPHEMERIS_TYPE = 0
CLASSIFICATION_TYPE = U
NORAD_CAT_ID   = 66483
ELEMENT_SET_NO = 999
REV_AT_EPOCH   = 399
BSTAR          = -.24644E-1
MEAN_MOTION_DOT = -.2112419E-1
MEAN_MOTION_DDOT = 0

